BEIDOU-2 IGSO-1 (C06)   
1 36828U 10036A   24037.71617140 -.00000124  00000+0  00000+0 0  9996
2 36828  54.2481 170.7588 0039147 193.4526 138.1831  1.00264712 49565
BEIDOU-2 G4 (C04)       
1 37210U 10057A   24037.82353024 -.00000103  00000+0  00000+0 0  9992
2 37210   1.5309  66.4702 0006503 199.8830 326.6504  1.00271253 48650
BEIDOU-2 IGSO-2 (C07)   
1 37256U 10068A   24037.59152706 -.00000152  00000+0  00000+0 0  9996
2 37256  49.1200 282.4225 0031130 213.3316 319.9195  1.00292453 48143
BEIDOU-2 IGSO-3 (C08)   
1 37384U 11013A   24037.66403529 -.00000142  00000+0  00000+0 0  9998
2 37384  61.1637  48.3803 0028077 184.4912 249.6685  1.00291811 47026
BEIDOU-2 IGSO-4 (C09)   
1 37763U 11038A   24037.73144466 -.00000031  00000+0  00000+0 0  9993
2 37763  54.5557 173.3425 0118481 226.7778  94.3841  1.00286491 46006
BEIDOU-2 IGSO-5 (C10)   
1 37948U 11073A   24037.66296081 -.00000104  00000+0  00000+0 0  9991
2 37948  49.2498 282.1010 0093506 220.6522 327.2674  1.00281047 44490
BEIDOU-2 G5 (C05)       
1 38091U 12008A   24037.87496067  .00000065  00000+0  00000+0 0  9994
2 38091   2.0824  70.4958 0008882 228.5692 211.1077  1.00271588 43730
BEIDOU-2 M3 (C11)       
1 38250U 12018A   24036.30471778 -.00000076  00000+0  00000+0 0  9994
2 38250  56.4235 333.7622 0023662 267.5371  92.2022  1.86231215 80229
BEIDOU-2 M4 (C12)       
1 38251U 12018B   24037.30940321 -.00000073  00000+0  00000+0 0  9998
2 38251  56.3314 333.0104 0014689 273.4950  86.3477  1.86231957 80246
BEIDOU-2 M6 (C14)       
1 38775U 12050B   24035.40819601 -.00000018  00000+0  00000+0 0  9999
2 38775  55.8061  91.6371 0013028 327.0755  32.9092  1.86231053 77229
BEIDOU-2 G6 (C02)       
1 38953U 12059A   24037.88000799 -.00000168  00000+0  00000+0 0  9996
2 38953   2.2229  81.3689 0010204 293.8667 162.1034  1.00271179 41279
BEIDOU-3S IGSO-1S (C31) 
1 40549U 15019A   24037.65514786 -.00000161  00000+0  00000+0 0  9993
2 40549  50.8159 305.7453 0035042 194.1458 328.0156  1.00277931 32432
BEIDOU-3S M2S (C58)     
1 40748U 15037A   24037.51077498 -.00000072  00000+0  00000+0 0  9994
2 40748  55.5669 331.5068 0010754 266.0448  93.8451  1.86232972 58074
BEIDOU-3S M1S (C57)     
1 40749U 15037B   24037.24409099 -.00000073  00000+0  00000+0 0  9992
2 40749  55.5703 331.5026 0006871 332.4563  27.5197  1.86232887 58075
BEIDOU-3S IGSO-2S (C56) 
1 40938U 15053A   24017.60469617 -.00000107  00000+0  00000+0 0  9998
2 40938  50.5932 269.1737 0046153 191.7705 325.9662  1.00252427 30519
BEIDOU-2 IGSO-6 (C13)   
1 41434U 16021A   24033.01166094 -.00000114  00000+0  00000+0 0  9990
2 41434  58.9717  46.7260 0049501 226.2454 315.0184  1.00254871 28790
BEIDOU-2 G7 (C03)       
1 41586U 16037A   24038.03660543 -.00000346  00000+0  00000+0 0  9997
2 41586   1.5911  67.6643 0009309 317.9923 234.5906  1.00278119 28143
BEIDOU-3 M1 (C19)       
1 43001U 17069A   24036.24827925 -.00000013  00000+0  00000+0 0  9998
2 43001  55.9573  91.6887 0011272 292.0912  67.8568  1.86231284 42530
BEIDOU-3 M2 (C20)       
1 43002U 17069B   24037.79612804 -.00000001  00000+0  00000+0 0  9995
2 43002  55.9582  91.6723 0008562 311.8312  48.1692  1.86231015 42556
BEIDOU-3 M7 (C27)       
1 43107U 18003A   24037.54608760 -.00000073  00000+0  00000+0 0  9998
2 43107  55.0244 332.1542 0004099  47.4581 312.5885  1.86232247 41303
BEIDOU-3 M8 (C28)       
1 43108U 18003B   24037.48545365 -.00000073  00000+0  00000+0 0  9993
2 43108  55.0173 332.1425 0004044 279.4262  80.5402  1.86230737 41318
BEIDOU-3 M4 (C22)       
1 43207U 18018A   24035.77936945 -.00000016  00000+0  00000+0 0  9994
2 43207  55.9159  91.7981 0005156 331.8027  28.2358  1.86231258 40668
BEIDOU-3 M3 (C21)       
1 43208U 18018B   24037.45682622 -.00000004  00000+0  00000+0 0  9999
2 43208  55.9165  91.7464 0008789 300.5883  59.3970  1.86231306 40692
BEIDOU-3 M9 (C29)       
1 43245U 18029A   24037.14192667 -.00000072  00000+0  00000+0 0  9998
2 43245  54.9132 329.8890 0001633 317.1391  42.8628  1.86232366 39842
BEIDOU-3 M10 (C30)      
1 43246U 18029B   24037.07176424 -.00000072  00000+0  00000+0 0  9994
2 43246  54.9101 329.9190 0004991 356.6157   3.3953  1.86232610 39824
BEIDOU-2 IGSO-7 (C16)   
1 43539U 18057A   24037.72949444 -.00000127  00000+0  00000+0 0  9993
2 43539  55.1380 170.5172 0069832 230.6153 108.7924  1.00292878 20492
BEIDOU-3 M5 (C23)       
1 43581U 18062A   24034.07116979  .00000114  00000+0  00000+0 0  9995
2 43581  54.1523 211.7367 0001610 348.0827  11.9152  1.86228725 37527
BEIDOU-3 M6 (C24)       
1 43582U 18062B   24034.47457385  .00000115  00000+0  00000+0 0  9990
2 43582  54.1519 211.7123 0007067  40.0479 320.0066  1.86229661 37536
BEIDOU-3 M12 (C26)      
1 43602U 18067A   24037.09416765  .00000103  00000+0  00000+0 0  9993
2 43602  54.2410 210.2922 0008075  31.5310 328.5140  1.86231583 37060
BEIDOU-3 M11 (C25)      
1 43603U 18067B   24035.61718937  .00000113  00000+0  00000+0 0  9997
2 43603  54.2383 210.3078 0004810  28.7986 331.2286  1.86231532 37069
BEIDOU-3 M13 (C32)      
1 43622U 18072A   24037.18799794 -.00000006  00000+0  00000+0 0  9990
2 43622  55.8877  91.2855 0007980 287.4790  72.5049  1.86231145 36603
BEIDOU-3 M14 (C33)      
1 43623U 18072B   24036.51649654 -.00000011  00000+0  00000+0 0  9992
2 43623  55.8888  91.3009 0005213 306.1078  53.9127  1.86231133 36587
BEIDOU-3 M16 (C35)      
1 43647U 18078A   24037.21675211 -.00000072  00000+0  00000+0 0  9997
2 43647  54.8091 329.9954 0008109   7.5774 352.4491  1.86232165 36104
BEIDOU-3 M15 (C34)      
1 43648U 18078B   24036.27197350 -.00000074  00000+0  00000+0 0  9998
2 43648  54.8055 330.0313 0004973   9.7243 350.2996  1.86232048 36114
BEIDOU-3 G1 (C59)       
1 43683U 18085A   24037.89112811 -.00000272  00000+0  00000+0 0  9993
2 43683   1.8734 115.3767 0002725 320.0141 161.9061  1.00267282 19424
BEIDOU-3 M17 (C36)      
1 43706U 18093A   24037.49439007  .00000100  00000+0  00000+0 0  9992
2 43706  54.2347 211.5485 0006226 293.0090  66.9223  1.86228250 35473
BEIDOU-3 M18 (C37)      
1 43707U 18093B   24037.36076479  .00000102  00000+0  00000+0 0  9991
2 43707  54.2356 211.5448 0005888 334.9010  25.0681  1.86229749 35482
BEIDOU-2 G8 (C01)       
1 44231U 19027A   24037.82048444 -.00000239  00000+0  00000+0 0  9996
2 44231   1.6222  72.8595 0003711 178.9065 324.5946  1.00273257 17449
BEIDOU-3 IGSO-2 (C39)   
1 44337U 19035A   24037.72103664 -.00000140  00000+0  00000+0 0  9998
2 44337  55.1701 166.4228 0031775 201.9243 146.9780  1.00281812 17023
BEIDOU-3 M24 (C46)      
1 44542U 19061A   24037.43125099  .00000102  00000+0  00000+0 0  9996
2 44542  54.4620 211.8109 0008450  12.9655 347.0541  1.86231187 29742
BEIDOU-3 M23 (C45)      
1 44543U 19061B   24037.29770824  .00000103  00000+0  00000+0 0  9994
2 44543  54.4606 211.7847 0005169  11.8821 170.6864  1.86231631 29744
BEIDOU-3 IGSO-3 (C40)   
1 44709U 19073A   24037.09983717 -.00000154  00000+0  00000+0 0  9993
2 44709  56.2714 290.1220 0034951 181.0773 179.0125  1.00289873 15814
BEIDOU-3 M22 (C44)      
1 44793U 19078A   24037.27692987 -.00000072  00000+0  00000+0 0  9996
2 44793  54.6572 329.9414 0007021  12.8826 347.1499  1.86231870 28606
BEIDOU-3 M21 (C43)      
1 44794U 19078B   24037.40707840 -.00000072  00000+0  00000+0 0  9997
2 44794  54.6308 329.9157 0005003   3.7960 356.2225  1.86232418 28601
BEIDOU-3 M19 (C41)      
1 44864U 19090A   24037.71307764 -.00000002  00000+0  00000+0 0  9997
2 44864  55.8218  91.4468 0019224 276.4222 122.0781  1.86231477 28192
BEIDOU-3 M20 (C42)      
1 44865U 19090B   24036.44595197 -.00000012  00000+0  00000+0 0  9997
2 44865  55.8227  91.5227 0016738 288.0237  70.6949  1.86231518 28144
BEIDOU-3 G2 (C60)       
1 45344U 20017A   24037.87618919 -.00000132  00000+0  00000+0 0  9990
2 45344   2.1686  24.0082 0002395 269.6673 238.2724  1.00272294 14627
BEIDOU-3 G3 (C61)       
1 45807U 20040A   24038.03660543 -.00000345  00000+0  00000+0 0  9995
2 45807   0.6054  19.8144 0009126 295.1292 305.4310  1.00273766 13446
BEIDOU-3 G4             
1 56564U 23066A   24037.82353024 -.00000099  00000+0  00000+0 0  9993
2 56564   2.4529 288.2279 0002809 212.7277  92.0350  1.00270696  2759
BEIDOU-3 M25            
1 58654U 23207A   24037.48992084 -.00000006  00000+0  00000+0 0  9997
2 58654  55.0031  91.5615 0004349 267.3380  92.6835  1.86232031   795
BEIDOU-3 M26            
1 58655U 23207B   24036.21466815 -.00000015  00000+0  00000+0 0  9996
2 58655  55.0040  91.5904 0005364 254.4248 105.5827  1.86231508   754
